ONEWEB-0395             
1 50475U 21132G   25327.77613255  .00000098  00000+0  24153-3 0  9999
2 50475  87.8861  61.9814 0001549 100.2140 259.9163 13.11418319188797
ONEWEB-0396             
1 50476U 21132H   25328.14880345  .00000113  00000+0  25406-3 0  9998
2 50476  87.9203  16.1754 0001802 102.2815 257.8519 13.18684753194611
ONEWEB-0397             
1 50477U 21132J   25327.63252538  .00000063  00000+0  12592-3 0  9995
2 50477  87.9201  16.2782 0001866 106.0037 254.1301 13.18685136194525
ONEWEB-0398             
1 50478U 21132K   25327.82021183 -.00000204  00000+0 -61071-3 0  9992
2 50478  87.8872  61.9442 0001627  96.6513 263.4800 13.11414763188694
ONEWEB-0399             
1 50479U 21132L   25327.80666102  .00000243  00000+0  65115-3 0  9991
2 50479  87.8860  61.9623 0001628 125.6154 234.5125 13.11414774188688
ONEWEB-0400             
1 50480U 21132M   25328.14221043  .00000105  00000+0  23481-3 0  9999
2 50480  87.9203  16.1671 0001825  95.8171 264.3169 13.18685381194589
ONEWEB-0401             
1 50481U 21132N   25328.03498410 -.00000341  00000+0 -89797-3 0  9998
2 50481  87.9200  16.1846 0002008 104.0576 256.0779 13.18686012194573
ONEWEB-0402             
1 50482U 21132P   25328.07457775  .00000039  00000+0  65310-4 0  9990
2 50482  87.9201  16.1698 0002350 108.2046 251.9342 13.18684167194601
